[{"OBJECT_NAME":"GPS BIIF-4","OBJECT_ID":"2013-023A","EPOCH":"2026-03-13T22:54:52.077024","MEAN_MOTION":2.00564183,"ECCENTRICITY":0.01417868,"INCLINATION":54.5793,"RA_OF_ASC_NODE":272.8513,"ARG_OF_PERICENTER":50.0653,"MEAN_ANOMALY":311.2026,"EPHEMERIS_TYPE":0,"CLASSIFICATION_TYPE":"U","NORAD_CAT_ID":39166,"ELEMENT_SET_NO":999,"REV_AT_EPOCH":9397,"BSTAR":0,"MEAN_MOTION_DOT":3.5e-7,"MEAN_MOTION_DDOT":0},{"OBJECT_NAME":"INSAT-3D","OBJECT_ID":"2013-038B","EPOCH":"2026-03-14T14:15:31.584384","MEAN_MOTION":1.00276418,"ECCENTRICITY":0.00015489,"INCLINATION":1.6801,"RA_OF_ASC_NODE":83.7801,"ARG_OF_PERICENTER":245.2557,"MEAN_ANOMALY":186.5583,"EPHEMERIS_TYPE":0,"CLASSIFICATION_TYPE":"U","NORAD_CAT_ID":39216,"ELEMENT_SET_NO":999,"REV_AT_EPOCH":4613,"BSTAR":0,"MEAN_MOTION_DOT":-3.39e-6,"MEAN_MOTION_DDOT":0},{"OBJECT_NAME":"GPS BIIF-5","OBJECT_ID":"2014-008A","EPOCH":"2026-03-13T22:53:22.290144","MEAN_MOTION":2.00553744,"ECCENTRICITY":0.00826427,"INCLINATION":53.6383,"RA_OF_ASC_NODE":153.2055,"ARG_OF_PERICENTER":228.6391,"MEAN_ANOMALY":130.6893,"EPHEMERIS_TYPE":0,"CLASSIFICATION_TYPE":"U","NORAD_CAT_ID":39533,"ELEMENT_SET_NO":999,"REV_AT_EPOCH":8777,"BSTAR":0,"MEAN_MOTION_DOT":-8.0e-8,"MEAN_MOTION_DDOT":0},{"OBJECT_NAME":"LUCH 5V","OBJECT_ID":"2014-023A","EPOCH":"2026-03-14T16:23:13.566624","MEAN_MOTION":1.00268817,"ECCENTRICITY":0.0003135,"INCLINATION":4.8991,"RA_OF_ASC_NODE":70.6656,"ARG_OF_PERICENTER":297.7893,"MEAN_ANOMALY":144.3232,"EPHEMERIS_TYPE":0,"CLASSIFICATION_TYPE":"U","NORAD_CAT_ID":39727,"ELEMENT_SET_NO":999,"REV_AT_EPOCH":4341,"BSTAR":0,"MEAN_MOTION_DOT":-2.66e-6,"MEAN_MOTION_DDOT":0},{"OBJECT_NAME":"GPS BIIF-6","OBJECT_ID":"2014-026A","EPOCH":"2026-03-14T05:33:03.338496","MEAN_MOTION":2.00568021,"ECCENTRICITY":0.0039739,"INCLINATION":56.5417,"RA_OF_ASC_NODE":335.2169,"ARG_OF_PERICENTER":325.0603,"MEAN_ANOMALY":34.7215,"EPHEMERIS_TYPE":0,"CLASSIFICATION_TYPE":"U","NORAD_CAT_ID":39741,"ELEMENT_SET_NO":999,"REV_AT_EPOCH":8663,"BSTAR":0,"MEAN_MOTION_DOT":-7.4e-7,"MEAN_MOTION_DDOT":0},{"OBJECT_NAME":"GPS BIIF-7","OBJECT_ID":"2014-045A","EPOCH":"2026-03-14T07:40:04.446624","MEAN_MOTION":2.00552225,"ECCENTRICITY":0.00314248,"INCLINATION":55.2885,"RA_OF_ASC_NODE":92.2427,"ARG_OF_PERICENTER":120.3235,"MEAN_ANOMALY":240.0488,"EPHEMERIS_TYPE":0,"CLASSIFICATION_TYPE":"U","NORAD_CAT_ID":40105,"ELEMENT_SET_NO":999,"REV_AT_EPOCH":8417,"BSTAR":0,"MEAN_MOTION_DOT":4.2e-7,"MEAN_MOTION_DDOT":0},{"OBJECT_NAME":"GSAT0201 (GALILEO 5)","OBJECT_ID":"2014-050A","EPOCH":"2026-03-11T07:43:01.878528","MEAN_MOTION":1.8552017,"ECCENTRICITY":0.16588071,"INCLINATION":48.9815,"RA_OF_ASC_NODE":277.4406,"ARG_OF_PERICENTER":175.5932,"MEAN_ANOMALY":186.0859,"EPHEMERIS_TYPE":0,"CLASSIFICATION_TYPE":"U","NORAD_CAT_ID":40128,"ELEMENT_SET_NO":999,"REV_AT_EPOCH":7650,"BSTAR":0,"MEAN_MOTION_DOT":5.0e-8,"MEAN_MOTION_DDOT":0},{"OBJECT_NAME":"GSAT0202 (GALILEO 6)","OBJECT_ID":"2014-050B","EPOCH":"2026-03-11T13:51:31.075200","MEAN_MOTION":1.85520847,"ECCENTRICITY":0.16596546,"INCLINATION":48.9971,"RA_OF_ASC_NODE":276.5149,"ARG_OF_PERICENTER":176.3418,"MEAN_ANOMALY":185.0558,"EPHEMERIS_TYPE":0,"CLASSIFICATION_TYPE":"U","NORAD_CAT_ID":40129,"ELEMENT_SET_NO":999,"REV_AT_EPOCH":7867,"BSTAR":0,"MEAN_MOTION_DOT":9.0e-8,"MEAN_MOTION_DDOT":0},{"OBJECT_NAME":"GPS BIIF-8","OBJECT_ID":"2014-068A","EPOCH":"2026-03-14T04:43:27.609312","MEAN_MOTION":2.00570456,"ECCENTRICITY":0.00632493,"INCLINATION":56.9263,"RA_OF_ASC_NODE":34.6146,"ARG_OF_PERICENTER":68.1095,"MEAN_ANOMALY":292.5564,"EPHEMERIS_TYPE":0,"CLASSIFICATION_TYPE":"U","NORAD_CAT_ID":40294,"ELEMENT_SET_NO":999,"REV_AT_EPOCH":8330,"BSTAR":0,"MEAN_MOTION_DOT":-4.6e-7,"MEAN_MOTION_DDOT":0},{"OBJECT_NAME":"GLONASS-K 2","OBJECT_ID":"2014-075A","EPOCH":"2026-03-14T00:59:02.749920","MEAN_MOTION":2.13101375,"ECCENTRICITY":0.00209682,"INCLINATION":63.6166,"RA_OF_ASC_NODE":193.6632,"ARG_OF_PERICENTER":206.5488,"MEAN_ANOMALY":153.3288,"EPHEMERIS_TYPE":0,"CLASSIFICATION_TYPE":"U","NORAD_CAT_ID":40315,"ELEMENT_SET_NO":999,"REV_AT_EPOCH":8782,"BSTAR":0,"MEAN_MOTION_DOT":0,"MEAN_MOTION_DDOT":0},{"OBJECT_NAME":"GPS BIIF-9","OBJECT_ID":"2015-013A","EPOCH":"2026-03-14T07:53:14.456256","MEAN_MOTION":2.00556995,"ECCENTRICITY":0.01087726,"INCLINATION":53.1841,"RA_OF_ASC_NODE":208.0995,"ARG_OF_PERICENTER":39.8558,"MEAN_ANOMALY":320.9019,"EPHEMERIS_TYPE":0,"CLASSIFICATION_TYPE":"U","NORAD_CAT_ID":40534,"ELEMENT_SET_NO":999,"REV_AT_EPOCH":7992,"BSTAR":0,"MEAN_MOTION_DOT":4.0e-8,"MEAN_MOTION_DDOT":0},{"OBJECT_NAME":"GSAT0203 (GALILEO 7)","OBJECT_ID":"2015-017A","EPOCH":"2026-03-13T14:23:31.127712","MEAN_MOTION":1.70475763,"ECCENTRICITY":0.00046632,"INCLINATION":56.8181,"RA_OF_ASC_NODE":344.2043,"ARG_OF_PERICENTER":298.714,"MEAN_ANOMALY":61.2673,"EPHEMERIS_TYPE":0,"CLASSIFICATION_TYPE":"U","NORAD_CAT_ID":40544,"ELEMENT_SET_NO":999,"REV_AT_EPOCH":6757,"BSTAR":0,"MEAN_MOTION_DOT":-8.4e-7,"MEAN_MOTION_DDOT":0},{"OBJECT_NAME":"GSAT0204 (GALILEO 8)","OBJECT_ID":"2015-017B","EPOCH":"2026-03-09T03:54:07.859808","MEAN_MOTION":1.70475628,"ECCENTRICITY":0.00041336,"INCLINATION":56.8258,"RA_OF_ASC_NODE":344.3432,"ARG_OF_PERICENTER":288.3156,"MEAN_ANOMALY":71.6649,"EPHEMERIS_TYPE":0,"CLASSIFICATION_TYPE":"U","NORAD_CAT_ID":40545,"ELEMENT_SET_NO":999,"REV_AT_EPOCH":3054,"BSTAR":0,"MEAN_MOTION_DOT":-9.9e-7,"MEAN_MOTION_DDOT":0},{"OBJECT_NAME":"GPS BIIF-10","OBJECT_ID":"2015-033A","EPOCH":"2026-03-13T23:46:12.182592","MEAN_MOTION":2.00561166,"ECCENTRICITY":0.0114687,"INCLINATION":54.0576,"RA_OF_ASC_NODE":271.0094,"ARG_OF_PERICENTER":29.1823,"MEAN_ANOMALY":331.4807,"EPHEMERIS_TYPE":0,"CLASSIFICATION_TYPE":"U","NORAD_CAT_ID":40730,"ELEMENT_SET_NO":999,"REV_AT_EPOCH":7808,"BSTAR":0,"MEAN_MOTION_DOT":3.5e-7,"MEAN_MOTION_DDOT":0},{"OBJECT_NAME":"METEOSAT-11 (MSG-4)","OBJECT_ID":"2015-034A","EPOCH":"2026-03-14T13:41:19.864320","MEAN_MOTION":1.00269313,"ECCENTRICITY":0.00018392,"INCLINATION":2.9637,"RA_OF_ASC_NODE":71.6194,"ARG_OF_PERICENTER":274.6277,"MEAN_ANOMALY":40.502,"EPHEMERIS_TYPE":0,"CLASSIFICATION_TYPE":"U","NORAD_CAT_ID":40732,"ELEMENT_SET_NO":999,"REV_AT_EPOCH":626,"BSTAR":0,"MEAN_MOTION_DOT":6.2e-7,"MEAN_MOTION_DDOT":0},{"OBJECT_NAME":"GSAT0206 (GALILEO 10)","OBJECT_ID":"2015-045B","EPOCH":"2026-03-12T02:01:25.666176","MEAN_MOTION":1.70473824,"ECCENTRICITY":0.0003542,"INCLINATION":54.9793,"RA_OF_ASC_NODE":224.2827,"ARG_OF_PERICENTER":50.5001,"MEAN_ANOMALY":309.4904,"EPHEMERIS_TYPE":0,"CLASSIFICATION_TYPE":"U","NORAD_CAT_ID":40890,"ELEMENT_SET_NO":999,"REV_AT_EPOCH":6538,"BSTAR":0,"MEAN_MOTION_DOT":3.7e-7,"MEAN_MOTION_DDOT":0},{"OBJECT_NAME":"GPS BIIF-11","OBJECT_ID":"2015-062A","EPOCH":"2026-03-13T13:12:45.711648","MEAN_MOTION":2.00567146,"ECCENTRICITY":0.01114077,"INCLINATION":56.8991,"RA_OF_ASC_NODE":34.4957,"ARG_OF_PERICENTER":231.546,"MEAN_ANOMALY":127.4471,"EPHEMERIS_TYPE":0,"CLASSIFICATION_TYPE":"U","NORAD_CAT_ID":41019,"ELEMENT_SET_NO":999,"REV_AT_EPOCH":7591,"BSTAR":0,"MEAN_MOTION_DOT":-4.7e-7,"MEAN_MOTION_DDOT":0}]
